{"type":"Feature","properties":{"MUN":"LAVALLETTE BORO","COUNTY":"OCEAN","MUN_LABEL":"Lavallette Borough","MUN_TYPE":"Borough","NAME":"Lavallette Borough","GNIS_NAME":"Borough of Lavallette"},"geometry":{"type":"Polygon","coordinates":[[[-74.068438,39.981501],[-74.0677978,39.9814374],[-74.0679491,39.9805328],[-74.063057,39.9800542],[-74.0633582,39.9789876],[-74.0635805,39.9779757],[-74.0636386,39.9775004],[-74.0636176,39.9774678],[-74.0635713,39.977435],[-74.0635588,39.9773927],[-74.0635762,39.9773178],[-74.0637976,39.9764557],[-74.0639499,39.975805],[-74.0640335,39.975294],[-74.064143,39.9747181],[-74.0643425,39.9739731],[-74.0645472,39.9730588],[-74.0645433,39.9730034],[-74.0645181,39.972974],[-74.0644844,39.9729543],[-74.0644762,39.9729152],[-74.0644808,39.9728501],[-74.0647147,39.9720011],[-74.064767,39.9717668],[-74.0648727,39.9711192],[-74.0648959,39.9708001],[-74.0648708,39.9707512],[-74.0648502,39.9706697],[-74.0648721,39.970546],[-74.0651185,39.9697328],[-74.0652359,39.969235],[-74.0653285,39.9686492],[-74.0653291,39.9685515],[-74.0652956,39.9685025],[-74.0652535,39.9684666],[-74.0652541,39.9683787],[-74.0652845,39.9682452],[-74.0654527,39.9677574],[-74.0656313,39.966944],[-74.0657266,39.9665991],[-74.0657575,39.9664039],[-74.0657495,39.9663224],[-74.0657159,39.9662832],[-74.0656654,39.9662505],[-74.065653,39.9662016],[-74.0656578,39.9661006],[-74.0660243,39.9650371],[-74.0660991,39.9645815],[-74.0661403,39.9640997],[-74.0661026,39.9640279],[-74.0660309,39.9639984],[-74.0659973,39.9639592],[-74.0659933,39.9639168],[-74.0660362,39.9638258],[-74.0662249,39.9634357],[-74.0663024,39.9632276],[-74.0663688,39.9627589],[-74.0665334,39.9619846],[-74.0665074,39.9619174],[-74.0664655,39.9616584],[-74.0664662,39.9615499],[-74.0665212,39.9614333],[-74.0665869,39.9613416],[-74.0665874,39.9612582],[-74.0665449,39.9611327],[-74.0665243,39.9609323],[-74.0665803,39.960682],[-74.0667338,39.9604154],[-74.0667343,39.960415],[-74.0667609,39.9600888],[-74.0668095,39.9599535],[-74.066858,39.9598412],[-74.0668795,39.9597449],[-74.0668775,39.9595841],[-74.0668362,39.9595151],[-74.0667559,39.9594643],[-74.0667292,39.9594412],[-74.0667236,39.9593884],[-74.0667661,39.959268],[-74.0667782,39.9592107],[-74.0680075,39.9593183],[-74.0680051,39.9593338],[-74.0684496,39.959371],[-74.0684227,39.9595524],[-74.0701188,39.9597006],[-74.0701277,39.9596461],[-74.0705222,39.9596839],[-74.0704482,39.9601436],[-74.0713334,39.9602292],[-74.0713341,39.9602252],[-74.0713358,39.9602151],[-74.0720707,39.9604024],[-74.0724904,39.9605094],[-74.0725096,39.960404],[-74.0727649,39.9604282],[-74.0727818,39.96033],[-74.07342,39.9603913],[-74.07336,39.9607694],[-74.0736172,39.9607941],[-74.0738798,39.9607618],[-74.0752887,39.960895],[-74.0752402,39.9612236],[-74.0753585,39.9612348],[-74.0758107,39.9613526],[-74.0768968,39.9614602],[-74.0768726,39.9616299],[-74.0772134,39.9617151],[-74.0776274,39.9617556],[-74.077943,39.9616674],[-74.0778614,39.9615157],[-74.0778972,39.9609096],[-74.0782427,39.9604731],[-74.0788339,39.9607055],[-74.0807858,39.960536],[-74.0850947,39.9618453],[-74.0865608,39.9643447],[-74.0845939,39.9661622],[-74.0824807,39.9667596],[-74.0782678,39.9691228],[-74.075795,39.9688887],[-74.0746758,39.9777731],[-74.0752625,39.9787379],[-74.0754112,39.9789823],[-74.0752637,39.9789729],[-74.0749247,39.979276],[-74.0745841,39.9800566],[-74.0739606,39.9805128],[-74.0736906,39.9821546],[-74.0736747,39.9822783],[-74.0733053,39.9822448],[-74.0731193,39.982227],[-74.0729622,39.982212],[-74.0728225,39.9821987],[-74.0726808,39.9821852],[-74.0725392,39.9821717],[-74.0723975,39.9821582],[-74.0722558,39.9821447],[-74.0721142,39.9821311],[-74.0719725,39.9821176],[-74.0718309,39.9821041],[-74.0716843,39.9820901],[-74.0715383,39.9820694],[-74.0714024,39.9820492],[-74.0711953,39.982029],[-74.0709828,39.9820084],[-74.0708412,39.9819946],[-74.0706996,39.9819808],[-74.070558,39.981967],[-74.0704164,39.9819533],[-74.0702747,39.9819395],[-74.0701006,39.9819234],[-74.0700077,39.9820424],[-74.0699562,39.9821084],[-74.0688299,39.9820044],[-74.0689046,39.9815456],[-74.0686699,39.981524],[-74.068438,39.981501]]]}}
